STARLINK-3721           
1 52134U 22029AY  26068.27400704  .00000227  00000+0  32336-4 0  9997
2 52134  53.2182  70.9864 0001380  93.7972 266.3178 15.08838960220871
LEMUR-2-MARHISYAM       
1 60536U 24149BW  26068.74036894  .00013075  00000+0  82973-3 0  9990
2 60536  97.6912 151.2662 0003578 107.3271 252.8349 15.09015520 85478
